#aV2009  9 24  0  0   .00000000      96 DD+AD WGS84 FIT  NGA
## 1550 345600.00000000   900.00000000 55098  .0000000000000
+   32     1  2  3  4  5  6  7  8  9 10 11 12 13 14 15 16 17
+         18 19 20 21 22 23 24 25 26 27 28 29 30 31 32  0  0
+          0  0  0  0  0  0  0  0  0  0  0  0  0  0  0  0  0
+          0  0  0  0  0  0  0  0  0  0  0  0  0  0  0  0  0
+          0  0  0  0  0  0  0  0  0  0  0  0  0  0  0  0  0
++         0  0  0  0  0  0  0  0  0  0  0  0  0  0  0  0  0
++         0  0  0  0  0  0  0  0  0  0  0  0  0  0  0  0  0
++         0  0  0  0  0  0  0  0  0  0  0  0  0  0  0  0  0
++         0  0  0  0  0  0  0  0  0  0  0  0  0  0  0  0  0
++         0  0  0  0  0  0  0  0  0  0  0  0  0  0  0  0  0
%c cc cc ccc ccc cccc cccc cccc cccc ccccc ccccc ccccc ccccc
%c cc cc ccc ccc cccc cccc cccc cccc ccccc ccccc ccccc ccccc
%f  0.0000000  0.000000000  0.00000000000  0.000000000000000
%f  0.0000000  0.000000000  0.00000000000  0.000000000000000
%i    0    0    0    0      0      0      0      0         0
%i    0    0    0    0      0      0      0      0         0
/*      NGA, ST. LOUIS,MO.                                  
/*   EPHEMERIS COMPUTED FROM  3 DAYS OF DATA                
/* CCCCCCCCCCCCCCCCCCCCCCCCCCCCCCCCCCCCCCCCCCCCCCCCCCCCCCCCC
/* CCCCCCCCCCCCCCCCCCCCCCCCCCCCCCCCCCCCCCCCCCCCCCCCCCCCCCCCC
*  2009  9 24 11 45   .00000000                                                 
P  1  15168.552750     88.751480  21698.681826    -58.417693                    
V  1  -1837.627603  27734.602624   1265.552106      -.008702                    
P  2   6203.595705  19288.166183  17313.838982    175.020118                    
V  2 -19336.520864 -10701.368546  18348.254119       .031863                    
P  3  -1964.294834 -17009.108827 -20567.735951    451.466582                    
V  3  22296.542951 -12597.283089   8782.922378       .051596                    
P  4  -5485.967131  14927.985712  21091.152202   -280.116843                    
V  4 -22798.752144 -14918.121111   4962.563287      -.174301                    
P  5   3724.771076  25018.186126  -7993.780297    -82.258097                    
V  5  -3417.992927   9929.006738  29586.963286       .103440                    
P  6   3252.705520 -17847.974586 -19188.700290    244.043362                    
V  6  22700.782349 -10308.303690  13398.014731       .057207                    
P  7 -22416.786943  -3873.890990 -13851.168870     10.879510                    
V  7 -13339.173816 -11454.000851  24678.025676      -.007449                    
P  8 -15001.453966   5942.611002 -21244.043865   -222.541484                    
V  8 -20799.452951 -16721.967172   9522.391934      -.014731                    
P  9  20971.587195  16117.973841  -3367.687149     79.278033                    
V  9  -4065.537416    -42.912961 -31723.849869       .022181                    
P 10   1871.855186  25583.848685  -6325.558346    -24.271897                    
V 10  -3877.171015   7547.148584  30487.980634      -.008913                    
P 11 -24090.176965 -11490.680541  -2097.262116    -21.103118                    
V 11   3977.387347  -3439.748862 -29716.951851      -.017580                    
P 12  11931.354235  14317.730395  19024.374683   -214.231451                    
V 12  -3233.574563  23792.344623 -15803.149649       .056175                    
P 13 -25078.743823   5335.557522   6839.187882    304.987684                    
V 13   7556.292335  -4846.780232  30900.638602       .004180                    
P 14  20340.369783 -14779.537430   8482.065041    -46.626743                    
V 14  10480.795292  -2437.931622 -29968.398159       .051464                    
P 15   9117.185343  12488.457014 -21572.426585   -319.045529                    
V 15 -24494.183391  12437.802672  -3076.089921      -.008888                    
P 16   2535.777143 -26301.772142   -215.931788      9.474502                    
V 16   2786.127698    -48.819911  32101.272016      -.039378                    
P 17 -20019.004339  15322.259032   8108.057652     87.519167                    
V 17 -10487.885381   1704.598781 -29569.049770       .030247                    
P 18  15480.006547  -6969.945168 -20087.915336     15.185327                    
V 18  -1399.601475  26233.275695 -10431.676552       .027840                    
P 19 -10766.337959 -11817.260564 -21203.610710      9.378376                    
V 19  24982.294333 -10248.311089  -6689.864920      -.017374                    
P 20 -13872.861814 -10906.711609  19742.373188     71.538534                    
V 20   2643.002852 -25291.845417 -11994.102265      -.009004                    
P 21  21370.958206    805.394880 -15846.611065    -11.076097                    
V 21  15448.355814  13610.273172  20523.157746      -.022932                    
P 22  12123.535900 -19210.754044 -13530.362852    190.229008                    
V 22    882.316264  17752.210578 -24195.386913      -.007605                    
P 23 -19447.882899  -4272.668450  17692.862302    388.255963                    
V 23  19709.017328 -10717.200869  18741.463764      -.003974                    
P 24  22677.276225  12321.411873  -5555.702210    223.168838                    
V 24   3789.452213   7018.238272  30614.871522       .030994                    
P 25 -24153.365548  -8466.092974  -6377.773040    606.528121                    
V 25  -6227.428163  -6443.025155  30708.176843       .143757                    
P 26  24841.926388 -10113.744558      7.632602     61.893262                    
V 26   1145.738314   1055.597654 -32115.562559      -.011016                    
P 27  19487.471409  16709.285540  -6183.599816     85.459580                    
V 27  -8683.497787  -2523.302206 -30765.282560       .032865                    
P 28 -12582.527894  16980.385874 -15449.627733    -26.108805                    
V 28    101.679220 -20646.333876 -22456.411001       .000480                    
P 29  24506.592842  -3489.286036   9662.101613     60.280691                    
V 29 -10066.619913   7266.544762  28476.560964       .033795                    
P 30  15121.119569   1989.148792  21362.564452    179.517096                    
V 30  -1132.277078  28046.884053  -1714.117693       .029852                    
P 31   2900.740504 -15659.523640  21439.166378    -63.941266                    
V 31  22390.544364  14603.430160   7849.305027       .005526                    
P 32  -8920.825405 -18822.195948  17027.610692    190.622045                    
V 32   4848.261196 -20254.466903 -20035.154239      -.071760                    
EOF
